[{"OBJECT_NAME":"SKYBEE-A01","OBJECT_ID":"2025-009BQ","EPOCH":"2026-03-09T22:13:34.187232","MEAN_MOTION":15.20469769,"ECCENTRICITY":0.00044249,"INCLINATION":97.4035,"RA_OF_ASC_NODE":149.2825,"ARG_OF_PERICENTER":337.6504,"MEAN_ANOMALY":22.4538,"EPHEMERIS_TYPE":0,"CLASSIFICATION_TYPE":"U","NORAD_CAT_ID":62671,"ELEMENT_SET_NO":999,"REV_AT_EPOCH":12125,"BSTAR":0.00016670502,"MEAN_MOTION_DOT":3.572e-5,"MEAN_MOTION_DDOT":0},{"OBJECT_NAME":"LIZZIESAT-3 (LS-3)","OBJECT_ID":"2025-052Z","EPOCH":"2026-03-09T23:14:46.856832","MEAN_MOTION":15.20716998,"ECCENTRICITY":0.00070924,"INCLINATION":97.4033,"RA_OF_ASC_NODE":322.5624,"ARG_OF_PERICENTER":136.4425,"MEAN_ANOMALY":223.7371,"EPHEMERIS_TYPE":0,"CLASSIFICATION_TYPE":"U","NORAD_CAT_ID":63233,"ELEMENT_SET_NO":999,"REV_AT_EPOCH":5472,"BSTAR":0.00032646441,"MEAN_MOTION_DOT":7.117e-5,"MEAN_MOTION_DDOT":0}]
